[
    {
        "Altitude(m)": 605470.7451827715,
        "Argument of Periapsis(deg)": 0.0,
        "Eccentricity": 0.0,
        "Inclination(deg)": 60.0,
        "Latitude(deg)": 27.98806063457936,
        "Longitude(deg)": -132.73701668804486,
        "Mean Anomaly(deg)": 147.27269999999996,
        "RAAN(deg)": 165.0,
        "Satellite Name": "Test1 735",
        "Satellite Number": 735,
        "Semi-Major Axis(m)": 6980739.136638005,
        "Time(s)": 0
    },
    {
        "Altitude(m)": 605395.7834892942,
        "Argument of Periapsis(deg)": 0.00010418945913296404,
        "Eccentricity": 0.0,
        "Inclination(deg)": 60.0,
        "Latitude(deg)": 27.473750895990918,
        "Longitude(deg)": -132.38383015422386,
        "Mean Anomaly(deg)": 147.8928061454618,
        "RAAN(deg)": 164.99957995086024,
        "Satellite Name": "Test1 735",
        "Satellite Number": 735,
        "Semi-Major Axis(m)": 6980739.136638005,
        "Time(s)": 10
    }
]